NORAD_CAT_ID,OBJECT_NAME,OBJECT_TYPE,EPOCH,MEAN_MOTION,ECCENTRICITY,INCLINATION,RA_OF_ASC_NODE,ARG_OF_PERICENTER,MEAN_ANOMALY,BSTAR,MEAN_MOTION_DOT,MEAN_MOTION_DDOT,TLE_LINE0,TLE_LINE1,TLE_LINE2,SEMIMAJOR_AXIS,PERIOD,APOGEE,PERIGEE,DECAYED
52292.0,STARLINK-3753,PAYLOAD,2024-01-10 11:58:50,15.08835892,0.000192,53.2192,41.9271,106.9125,253.2078,-2.6917e-05,-7.16e-06,0.0,0 STARLINK-3753,1 52292U 22041AH  24010.49919278 -.00000716  00000-0 -26917-4 0  9990,2 52292  53.2192  41.9271 0001920 106.9125 253.2078 15.08835892 96588,6917.893,95.438,541.086,538.43,0.0
52292.0,STARLINK-3753,PAYLOAD,2024-01-11 07:03:30,15.08815403,0.0001956,53.2179,38.3615,113.4735,246.6463,-0.0001635,-2.888e-05,0.0,0 STARLINK-3753,1 52292U 22041AH  24011.29410001 -.00002888  00000-0 -16350-3 0  9990,2 52292  53.2179  38.3615 0001956 113.4735 246.6463 15.08815403 96708,6917.956,95.439,541.174,538.467,0.0
52292.0,STARLINK-3753,PAYLOAD,2024-01-12 02:08:06,15.08840042,0.0001589,53.2183,34.7965,111.8809,248.2352,0.00010998,1.463e-05,0.0,0 STARLINK-3753,1 52292U 22041AH  24012.08896242  .00001463  00000-0  10998-3 0  9991,2 52292  53.2183  34.7965 0001589 111.8809 248.2352 15.08840042 96822,6917.88,95.438,540.845,538.646,0.0
52292.0,STARLINK-3753,PAYLOAD,2024-01-12 08:29:37,15.08856683,0.0001648,53.218,33.6048,101.2937,258.8241,0.00023136,3.398e-05,0.0,0 STARLINK-3753,1 52292U 22041AH  24012.35390633  .00003398  00000-0  23136-3 0  9991,2 52292  53.2180  33.6048 0001648 101.2937 258.8241 15.08856683 96866,6917.829,95.436,540.834,538.554,0.0
52292.0,STARLINK-3753,PAYLOAD,2024-01-13 00:23:30,15.08831454,0.0001651,53.2186,30.6315,105.2405,254.877,0.00027777,4.134e-05,0.0,0 STARLINK-3753,1 52292U 22041AH  24013.01632354  .00004134  00000-0  27777-3 0  9998,2 52292  53.2186  30.6315 0001651 105.2405 254.8770 15.08831454 96967,6917.907,95.438,540.914,538.629,0.0
52292.0,STARLINK-3753,PAYLOAD,2024-01-13 09:55:48,15.08848294,0.0001481,53.2181,28.8455,95.012,265.1041,6.4351e-05,7.37e-06,0.0,0 STARLINK-3753,1 52292U 22041AH  24013.41376084  .00000737  00000-0  64351-4 0  9992,2 52292  53.2181  28.8455 0001481  95.0120 265.1041 15.08848294 95805,6917.855,95.437,540.745,538.696,0.0
52292.0,STARLINK-3753,PAYLOAD,2024-01-14 09:46:35,15.08852857,0.0001694,53.2182,24.3885,90.7361,269.3825,-7.6337e-05,-1.503e-05,0.0,0 STARLINK-3753,1 52292U 22041AH  24014.40735976 -.00001503  00000-0 -76337-4 0  9992,2 52292  53.2182  24.3885 0001694  90.7361 269.3825 15.08852857 95951,6917.841,95.437,540.878,538.534,0.0
52292.0,STARLINK-3753,PAYLOAD,2024-01-15 00:05:04,15.08840651,0.0001772,53.2184,21.7117,87.6064,272.5131,7.313e-05,8.76e-06,0.0,0 STARLINK-3753,1 52292U 22041AH  24015.00352207  .00000876  00000-0  73130-4 0  9999,2 52292  53.2184  21.7117 0001772  87.6064 272.5131 15.08840651 97265,6917.878,95.438,540.969,538.518,0.0
52292.0,STARLINK-3753,PAYLOAD,2024-01-15 08:01:59,15.08847834,0.0002073,53.2188,20.2269,71.5319,288.5899,0.00015253,2.141e-05,0.0,0 STARLINK-3753,1 52292U 22041AH  24015.33471573  .00002141  00000-0  15253-3 0  9991,2 52292  53.2188  20.2269 0002073  71.5319 288.5899 15.08847834 97315,6917.856,95.437,541.156,538.287,0.0
52292.0,STARLINK-3753,PAYLOAD,2024-01-15 23:55:51,15.08837557,0.0001908,53.2181,17.2541,78.5286,281.592,-1.663e-06,-3.15e-06,0.0,0 STARLINK-3753,1 52292U 22041AH  24015.99712768 -.00000315  00000-0 -16630-5 0  9992,2 52292  53.2181  17.2541 0001908  78.5286 281.5920 15.08837557 97413,6917.888,95.438,541.073,538.433,0.0
52292.0,STARLINK-3753,PAYLOAD,2024-01-16 09:28:10,15.08838312,0.0001968,53.2178,15.4696,77.4126,282.7086,6.0208e-06,-1.92e-06,0.0,0 STARLINK-3753,1 52292U 22041AH  24016.39456784 -.00000192  00000-0  60208-5 0  9992,2 52292  53.2178  15.4696 0001968  77.4126 282.7086 15.08838312 96254,6917.886,95.438,541.112,538.389,0.0
52292.0,STARLINK-3753,PAYLOAD,2024-01-17 02:57:24,15.08842745,0.0001681,53.2171,12.1973,87.4441,272.6743,2.6923e-05,1.4e-06,0.0,0 STARLINK-3753,1 52292U 22041AH  24017.12320355  .00000140  00000-0  26923-4 0  9995,2 52292  53.2171  12.1973 0001681  87.4441 272.6743 15.08842745 97582,6917.872,95.437,540.9,538.574,0.0
52292.0,STARLINK-3753,PAYLOAD,2024-01-17 06:08:10,15.08846502,0.0001658,53.2182,11.6021,90.6839,269.4343,4.9054e-05,4.93e-06,0.0,0 STARLINK-3753,1 52292U 22041AH  24017.25568111  .00000493  00000-0  49054-4 0  9994,2 52292  53.2182  11.6021 0001658  90.6839 269.4343 15.08846502 96385,6917.861,95.437,540.872,538.579,0.0
52292.0,STARLINK-3753,PAYLOAD,2024-01-18 04:23:35,15.08838694,0.0001711,53.218,7.4368,100.7878,259.3307,9.605e-05,1.241e-05,0.0,0 STARLINK-3753,1 52292U 22041AH  24018.18304509  .00001241  00000-0  96050-4 0  9996,2 52292  53.2180   7.4368 0001711 100.7878 259.3307 15.08838694 97748,6917.884,95.438,540.933,538.566,0.0
52292.0,STARLINK-3753,PAYLOAD,2024-01-18 09:09:44,15.08842388,0.0001742,53.2181,6.5442,103.7817,256.3369,0.00012024,1.626e-05,0.0,0 STARLINK-3753,1 52292U 22041AH  24018.38176224  .00001626  00000-0  12024-3 0  9994,2 52292  53.2181   6.5442 0001742 103.7817 256.3369 15.08842388 96550,6917.873,95.437,540.943,538.533,0.0
52292.0,STARLINK-3753,PAYLOAD,2024-01-19 05:49:45,15.08844659,0.0001657,53.2184,2.6753,103.1502,256.9675,1.3323e-06,-2.67e-06,0.0,0 STARLINK-3753,1 52292U 22041AH  24019.24288437 -.00000267  00000-0  13323-5 0  9996,2 52292  53.2184   2.6753 0001657 103.1502 256.9675 15.08844659 97904,6917.866,95.437,540.877,538.585,0.0
52292.0,STARLINK-3753,PAYLOAD,2024-01-19 21:43:36,15.08840352,0.0001914,53.219,359.7059,114.5314,245.5878,5.7149e-06,-1.97e-06,0.0,0 STARLINK-3753,1 52292U 22041AH  24019.90528853 -.00000197  00000-0  57149-5 0  9994,2 52292  53.2190 359.7059 0001914 114.5314 245.5878 15.08840352 96789,6917.879,95.438,541.068,538.42,0.0
52292.0,STARLINK-3753,PAYLOAD,2024-01-20 07:15:55,15.08848349,0.0001666,53.2193,357.9225,108.6736,251.4437,6.9811e-05,8.23e-06,0.0,0 STARLINK-3753,1 52292U 22041AH  24020.30272133  .00000823  00000-0  69811-4 0  9990,2 52292  53.2193 357.9225 0001666 108.6736 251.4437 15.08848349 98067,6917.855,95.437,540.872,538.567,0.0
52292.0,STARLINK-3753,PAYLOAD,2024-01-21 03:55:56,15.08837456,0.0001743,53.2193,354.0586,102.9306,257.1881,5.5969e-05,6.03e-06,0.0,0 STARLINK-3753,1 52292U 22041AH  24021.16385186  .00000603  00000-0  55969-4 0  9993,2 52292  53.2193 354.0586 0001743 102.9306 257.1881 15.08837456 98198,6917.888,95.438,540.959,538.547,0.0
52292.0,STARLINK-3753,PAYLOAD,2024-01-21 05:31:19,15.08839405,0.0001641,53.219,353.7611,96.5678,263.5501,7.6006e-05,9.22e-06,0.0,0 STARLINK-3753,1 52292U 22041AH  24021.23009114  .00000922  00000-0  76006-4 0  9994,2 52292  53.2190 353.7611 0001641  96.5678 263.5501 15.08839405 96988,6917.882,95.438,540.882,538.612,0.0
52292.0,STARLINK-3753,PAYLOAD,2024-01-22 05:22:06,15.08848241,0.0001667,53.2193,349.3002,78.5386,281.5794,0.00012578,1.715e-05,0.0,0 STARLINK-3753,1 52292U 22041AH  24022.22368576  .00001715  00000-0  12578-3 0  9998,2 52292  53.2193 349.3002 0001667  78.5386 281.5794 15.08848241 97130,6917.855,95.437,540.873,538.567,0.0
52292.0,STARLINK-3753,PAYLOAD,2024-01-22 06:57:28,15.08857391,0.0001643,53.2197,348.999,88.3028,271.8152,0.00013576,1.874e-05,0.0,0 STARLINK-3753,1 52292U 22041AH  24022.28991775  .00001874  00000-0  13576-3 0  9992,2 52292  53.2197 348.9990 0001643  88.3028 271.8152 15.08857391 98363,6917.827,95.436,540.829,538.556,0.0
52292.0,STARLINK-3753,PAYLOAD,2024-01-23 03:37:29,15.08834981,0.000172,53.2188,345.1358,63.1421,296.9747,-0.00015127,-2.694e-05,0.0,0 STARLINK-3753,1 52292U 22041AH  24023.15103956 -.00002694  00000-0 -15127-3 0  9992,2 52292  53.2188 345.1358 0001720  63.1421 296.9747 15.08834981 98496,6917.896,95.438,540.951,538.571,0.0
52292.0,STARLINK-3753,PAYLOAD,2024-01-24 03:28:17,15.08836524,0.0001748,53.2188,340.6723,75.0587,285.0599,-0.00016609,-2.93e-05,0.0,0 STARLINK-3753,1 52292U 22041AH  24024.14464143 -.00002930  00000-0 -16609-3 0  9999,2 52292  53.2188 340.6723 0001748  75.0587 285.0599 15.08836524 97428,6917.891,95.438,540.965,538.547,0.0
52292.0,STARLINK-3753,PAYLOAD,2024-01-25 03:19:05,15.08823354,0.000168,53.2187,336.2146,99.3058,260.8124,0.00045012,6.88e-05,0.0,0 STARLINK-3753,1 52292U 22041AH  24025.13825516  .00006880  00000-0  45012-3 0  9990,2 52292  53.2187 336.2146 0001680  99.3058 260.8124 15.08823354 98797,6917.931,95.439,540.958,538.634,0.0
52292.0,STARLINK-3753,PAYLOAD,2024-01-26 03:09:52,15.08840995,0.0001675,53.2196,331.7572,99.1754,260.9428,0.00019749,2.856e-05,0.0,0 STARLINK-3753,1 52292U 22041AH  24026.13185418  .00002856  00000-0  19749-3 0  9998,2 52292  53.2196 331.7572 0001675  99.1754 260.9428 15.08840995 97725,6917.877,95.437,540.901,538.584,0.0
52292.0,STARLINK-3753,PAYLOAD,2024-01-27 03:00:39,15.08840644,0.0001659,53.2195,327.2979,101.4915,258.6264,0.00015798,2.227e-05,0.0,0 STARLINK-3753,1 52292U 22041AH  24027.12545636  .00002227  00000-0  15798-3 0  9992,2 52292  53.2195 327.2979 0001659 101.4915 258.6264 15.08840644 99098,6917.878,95.438,540.891,538.596,0.0
52292.0,STARLINK-3753,PAYLOAD,2024-01-28 02:51:26,15.0884485,0.0001677,53.2192,322.8378,108.9341,251.1833,0.0001008,1.317e-05,0.0,0 STARLINK-3753,1 52292U 22041AH  24028.11905286  .00001317  00000-0  10080-3 0  9991,2 52292  53.2192 322.8378 0001677 108.9341 251.1833 15.08844850 98029,6917.866,95.437,540.891,538.57,0.0
52292.0,STARLINK-3753,PAYLOAD,2024-01-28 18:45:17,15.0884416,0.0001703,53.2191,319.866,114.6578,245.4591,1.2909e-05,-8.3e-07,0.0,0 STARLINK-3753,1 52292U 22041AH  24028.78145317 -.00000083  00000-0  12909-4 0  9998,2 52292  53.2191 319.8660 0001703 114.6578 245.4591 15.08844160 99341,6917.868,95.437,540.911,538.555,0.0
52292.0,STARLINK-3753,PAYLOAD,2024-01-29 02:42:13,15.08840811,0.0001514,53.2193,318.374,86.1551,273.9615,6.1058e-05,6.84e-06,0.0,0 STARLINK-3753,1 52292U 22041AH  24029.11265977  .00000684  00000-0  61058-4 0  9996,2 52292  53.2193 318.3740 0001514  86.1551 273.9615 15.08840811 99397,6917.878,95.438,540.79,538.696,0.0
